NORAD_CAT_ID,OBJECT_NAME,OBJECT_TYPE,EPOCH,MEAN_MOTION,ECCENTRICITY,INCLINATION,RA_OF_ASC_NODE,ARG_OF_PERICENTER,MEAN_ANOMALY,BSTAR,MEAN_MOTION_DOT,MEAN_MOTION_DDOT,TLE_LINE0,TLE_LINE1,TLE_LINE2,SEMIMAJOR_AXIS,PERIOD,APOGEE,PERIGEE,DECAYED
52620.0,STARLINK-3975,PAYLOAD,2023-05-04 16:51:59,15.08849705,0.0001015,53.2172,272.8007,95.1258,264.985,0.00030525,4.575e-05,0.0,0 STARLINK-3975,1 52620U 22052Y   23124.70277776  .00004575  00000-0  30525-3 0  9990,2 52620  53.2172 272.8007 0001015  95.1258 264.9850 15.08849705 53773,6917.851,95.437,540.418,539.014,0.0
52620.0,STARLINK-3975,PAYLOAD,2023-05-05 11:56:37,15.08833958,0.0001145,53.2167,269.2331,109.2785,250.8331,-0.00011192,-2.068e-05,0.0,0 STARLINK-3975,1 52620U 22052Y   23125.49766167 -.00002068  00000-0 -11192-3 0  9990,2 52620  53.2167 269.2331 0001145 109.2785 250.8331 15.08833958 54270,6917.899,95.438,540.556,538.972,0.0
52620.0,STARLINK-3975,PAYLOAD,2023-05-05 18:18:10,15.08843888,9.96e-05,53.2169,268.0448,84.9575,275.153,0.00028152,4.196e-05,0.0,0 STARLINK-3975,1 52620U 22052Y   23125.76262137  .00004196  00000-0  28152-3 0  9994,2 52620  53.2169 268.0448 0000996  84.9575 275.1530 15.08843888 53933,6917.869,95.437,540.423,539.044,0.0
52620.0,STARLINK-3975,PAYLOAD,2023-05-06 13:22:48,15.0884913,9.4e-05,53.2155,264.477,94.7316,265.3783,0.00062253,9.636e-05,0.0,0 STARLINK-3975,1 52620U 22052Y   23126.55750296  .00009636  00000-0  62253-3 0  9994,2 52620  53.2155 264.4770 0000940  94.7316 265.3783 15.08849130 54058,6917.852,95.437,540.368,539.067,0.0
52620.0,STARLINK-3975,PAYLOAD,2023-05-06 16:33:34,15.08858493,9.82e-05,53.2159,263.8819,82.5888,277.5216,0.00093548,0.00014639,0.0,0 STARLINK-3975,1 52620U 22052Y   23126.68998162  .00014639  00000-0  93548-3 0  9994,2 52620  53.2159 263.8819 0000982  82.5888 277.5216 15.08858493 54456,6917.824,95.436,540.368,539.01,0.0
52620.0,STARLINK-3975,PAYLOAD,2023-05-07 02:05:53,15.08852818,0.0001058,53.2166,262.0975,64.0098,296.1003,0.00065304,0.00010124,0.0,0 STARLINK-3975,1 52620U 22052Y   23127.08742110  .00010124  00000-0  65304-3 0  9993,2 52620  53.2166 262.0975 0001058  64.0098 296.1003 15.08852818 54514,6917.841,95.437,540.438,538.974,0.0
52620.0,STARLINK-3975,PAYLOAD,2023-05-07 13:13:35,15.08824641,9.33e-05,53.2159,260.0157,63.871,296.2378,-0.00027421,-4.647e-05,0.0,0 STARLINK-3975,1 52620U 22052Y   23127.55110824 -.00004647  00000-0 -27421-3 0  9999,2 52620  53.2159 260.0157 0000933  63.8710 296.2378 15.08824641 54200,6917.927,95.439,540.438,539.147,0.0
52620.0,STARLINK-3975,PAYLOAD,2023-05-07 16:24:22,15.08831869,0.0001013,53.2157,259.4211,63.9268,296.1828,0.00019819,2.867e-05,0.0,0 STARLINK-3975,1 52620U 22052Y   23127.68358906  .00002867  00000-0  19819-3 0  9990,2 52620  53.2157 259.4211 0001013  63.9268 296.1828 15.08831869 54603,6917.905,95.438,540.471,539.069,0.0
52620.0,STARLINK-3975,PAYLOAD,2023-05-08 01:56:41,15.08842252,0.0001046,53.2157,257.637,61.0774,299.0323,0.0010787,0.00016922,0.0,0 STARLINK-3975,1 52620U 22052Y   23128.08103202  .00016922  00000-0  10787-2 0  9993,2 52620  53.2157 257.6370 0001046  61.0774 299.0323 15.08842252 54662,6917.874,95.437,540.462,539.015,0.0
52620.0,STARLINK-3975,PAYLOAD,2023-05-08 17:50:31,15.08874315,0.000116,53.2154,254.6644,53.6066,306.5033,0.0018253,0.00028908,0.0,0 STARLINK-3975,1 52620U 22052Y   23128.74342589  .00028908  00000-0  18253-2 0  9992,2 52620  53.2154 254.6644 0001160  53.6066 306.5033 15.08874315 54384,6917.776,95.435,540.443,538.838,0.0
52620.0,STARLINK-3975,PAYLOAD,2023-05-09 12:55:10,15.0884896,0.0001045,53.2155,251.0961,49.2749,310.8334,0.0015385,0.00024288,0.0,0 STARLINK-3975,1 52620U 22052Y   23129.53831041  .00024288  00000-0  15385-2 0  9996,2 52620  53.2155 251.0961 0001045  49.2749 310.8334 15.08848960 54502,6917.853,95.437,540.441,538.995,0.0
52620.0,STARLINK-3975,PAYLOAD,2023-05-10 12:45:57,15.08851126,9.54e-05,53.2161,246.6355,83.9984,276.1116,0.0015582,0.00024605,0.0,0 STARLINK-3975,1 52620U 22052Y   23130.53191116  .00024605  00000-0  15582-2 0  9992,2 52620  53.2161 246.6355 0000954  83.9984 276.1116 15.08851126 54656,6917.846,95.437,540.371,539.051,0.0
52620.0,STARLINK-3975,PAYLOAD,2023-05-10 17:32:06,15.08858178,9.85e-05,53.2165,245.7442,76.408,283.7022,0.0015928,0.00025165,0.0,0 STARLINK-3975,1 52620U 22052Y   23130.73062938  .00025165  00000-0  15928-2 0  9999,2 52620  53.2165 245.7442 0000985  76.4080 283.7022 15.08858178 54682,6917.825,95.436,540.371,539.008,0.0
52620.0,STARLINK-3975,PAYLOAD,2023-05-11 11:01:20,15.08858477,0.0001027,53.2165,242.4711,70.4539,289.6563,0.0011343,0.0001782,0.0,0 STARLINK-3975,1 52620U 22052Y   23131.45926645  .00017820  00000-0  11343-2 0  9999,2 52620  53.2165 242.4711 0001027  70.4539 289.6563 15.08858477 55178,6917.824,95.436,540.399,538.978,0.0
52620.0,STARLINK-3975,PAYLOAD,2023-05-11 12:36:43,15.08859699,0.0001022,53.2164,242.1735,67.3347,292.7754,0.0011841,0.00018617,0.0,0 STARLINK-3975,1 52620U 22052Y   23131.52550565  .00018617  00000-0  11841-2 0  9999,2 52620  53.2164 242.1735 0001022  67.3347 292.7754 15.08859699 54800,6917.82,95.436,540.392,538.978,0.0
52620.0,STARLINK-3975,PAYLOAD,2023-05-11 23:44:25,15.08854113,0.0001549,53.2167,240.0873,32.2899,327.8188,0.00052401,8.065e-05,0.0,0 STARLINK-3975,1 52620U 22052Y   23131.98918362  .00008065  00000-0  52401-3 0  9996,2 52620  53.2167 240.0873 0001549  32.2899 327.8188 15.08854113 55257,6917.837,95.437,540.774,538.631,0.0
52620.0,STARLINK-3975,PAYLOAD,2023-05-12 23:35:13,15.08839898,0.0001764,53.218,235.6404,113.8998,246.2179,0.00025612,3.79e-05,0.0,0 STARLINK-3975,1 52620U 22052Y   23132.98279043  .00003790  00000-0  25612-3 0  9997,2 52620  53.2180 235.6404 0001764 113.8998 246.2179 15.08839898 55401,6917.881,95.438,540.966,538.525,0.0
52620.0,STARLINK-3975,PAYLOAD,2023-05-13 12:18:17,15.08846438,0.0001461,53.2173,233.2622,126.6166,233.4961,0.00020614,2.995e-05,0.0,0 STARLINK-3975,1 52620U 22052Y   23133.51270580  .00002995  00000-0  20614-3 0  9997,2 52620  53.2173 233.2622 0001461 126.6166 233.4961 15.08846438 55104,6917.861,95.437,540.736,538.715,0.0
52620.0,STARLINK-3975,PAYLOAD,2023-05-13 23:26:00,15.08837035,0.0001108,53.2162,231.1768,106.1168,253.9946,0.0001431,1.99e-05,0.0,0 STARLINK-3975,1 52620U 22052Y   23133.97639071  .00001990  00000-0  14310-3 0  9991,2 52620  53.2162 231.1768 0001108 106.1168 253.9946 15.08837035 55555,6917.889,95.438,540.521,538.988,0.0
52620.0,STARLINK-3975,PAYLOAD,2023-05-14 13:44:28,15.08833293,0.0001133,53.2167,228.5005,97.2892,262.8228,7.9562e-06,-1.61e-06,0.0,0 STARLINK-3975,1 52620U 22052Y   23134.57255548 -.00000161  00000-0  79562-5 0  9993,2 52620  53.2167 228.5005 0001133  97.2892 262.8228 15.08833293 55268,6917.901,95.438,540.55,538.982,0.0
52620.0,STARLINK-3975,PAYLOAD,2023-05-14 15:19:51,15.08833333,0.0001148,53.2168,228.2034,97.8954,262.2168,1.1449e-05,-1.06e-06,0.0,0 STARLINK-3975,1 52620U 22052Y   23134.63879585 -.00000106  00000-0  11449-4 0  9991,2 52620  53.2168 228.2034 0001148  97.8954 262.2168 15.08833333 55654,6917.901,95.438,540.56,538.972,0.0
52620.0,STARLINK-3975,PAYLOAD,2023-05-15 11:59:52,15.08843802,0.0001057,53.2155,224.3352,96.1492,263.9621,0.00010771,1.427e-05,0.0,0 STARLINK-3975,1 52620U 22052Y   23135.49991362  .00001427  00000-0  10771-3 0  9996,2 52620  53.2155 224.3352 0001057  96.1492 263.9621 15.08843802 55405,6917.869,95.437,540.465,539.003,0.0
52620.0,STARLINK-3975,PAYLOAD,2023-05-15 13:35:15,15.08842889,0.0001075,53.2153,224.0377,97.6385,262.4729,0.00017631,2.519e-05,0.0,0 STARLINK-3975,1 52620U 22052Y   23135.56615442  .00002519  00000-0  17631-3 0  9991,2 52620  53.2153 224.0377 0001075  97.6385 262.4729 15.08842889 55793,6917.872,95.437,540.48,538.993,0.0
52620.0,STARLINK-3975,PAYLOAD,2023-05-16 10:15:17,15.08834392,9.76e-05,53.215,220.1723,88.4416,271.6688,0.00017891,2.56e-05,0.0,0 STARLINK-3975,1 52620U 22052Y   23136.42728187  .00002560  00000-0  17891-3 0  9992,2 52620  53.2150 220.1723 0000976  88.4416 271.6688 15.08834392 55925,6917.898,95.438,540.438,539.087,0.0
52620.0,STARLINK-3975,PAYLOAD,2023-05-16 11:50:40,15.08838143,0.0001016,53.2153,219.8749,92.5153,267.5955,8.5382e-05,1.071e-05,0.0,0 STARLINK-3975,1 52620U 22052Y   23136.49352031  .00001071  00000-0  85382-4 0  9997,2 52620  53.2153 219.8749 0001016  92.5153 267.5955 15.08838143 55559,6917.886,95.438,540.454,539.048,0.0
52620.0,STARLINK-3975,PAYLOAD,2023-05-16 15:01:26,15.08840264,0.0001057,53.2156,219.278,92.0017,268.1096,0.00014501,2.021e-05,0.0,0 STARLINK-3975,1 52620U 22052Y   23136.62599925  .00002021  00000-0  14501-3 0  9997,2 52620  53.2156 219.2780 0001057  92.0017 268.1096 15.08840264 55572,6917.88,95.438,540.476,539.013,0.0
52620.0,STARLINK-3975,PAYLOAD,2023-05-17 10:06:03,15.08847453,0.0001092,53.2169,215.7083,83.2787,276.833,0.00021466,3.131e-05,0.0,0 STARLINK-3975,1 52620U 22052Y   23137.42087562  .00003131  00000-0  21466-3 0  9996,2 52620  53.2169 215.7083 0001092  83.2787 276.8330 15.08847453 56078,6917.858,95.437,540.478,538.967,0.0
52620.0,STARLINK-3975,PAYLOAD,2023-05-17 14:52:12,15.08852184,0.0001028,53.2167,214.8161,89.1316,270.9794,0.00020035,2.903e-05,0.0,0 STARLINK-3975,1 52620U 22052Y   23137.61959218  .00002903  00000-0  20035-3 0  9990,2 52620  53.2167 214.8161 0001028  89.1316 270.9794 15.08852184 55722,6917.843,95.437,540.419,538.997,0.0
52620.0,STARLINK-3975,PAYLOAD,2023-05-18 11:32:13,15.08842418,9.15e-05,53.216,210.948,102.1929,257.9166,6.754e-05,7.87e-06,0.0,0 STARLINK-3975,1 52620U 22052Y   23138.48071569  .00000787  00000-0  67540-4 0  9991,2 52620  53.2160 210.9480 0000915 102.1929 257.9166 15.08842418 56230,6917.873,95.437,540.371,539.105,0.0
52620.0,STARLINK-3975,PAYLOAD,2023-05-18 16:18:23,15.08841717,0.0001075,53.2162,210.0558,94.7467,265.3648,4.9692e-05,5.03e-06,0.0,0 STARLINK-3975,1 52620U 22052Y   23138.67943569  .00000503  00000-0  49692-4 0  9994,2 52620  53.2162 210.0558 0001075  94.7467 265.3648 15.08841717 55889,6917.875,95.437,540.484,538.996,0.0
